start=new Date('2021-09-24T00:00:00.000Z').valueOf();
sats=[{"PERIAPSIS":"546.603","LAUNCH_DATE":"2020-10-06","CENTER_NAME":"EARTH","MEAN_MOTION":"15.06407488","SEMIMAJOR_AXIS":"6925.326","FILE":"3124856","CLASSIFICATION_TYPE":"U","EPOCH":"2021-09-23T10:02:14.322048","TLE_LINE1":"1 46565U 20070AK  21266.41822132  .00000871  00000-0  77304-4 0  9996","TIME_SYSTEM":"UTC","MEAN_ELEMENT_THEORY":"SGP4","TLE_LINE2":"2 46565  53.0552 266.1270 0000849  60.8595 299.2479 15.06407488 54369","ARG_OF_PERICENTER":"60.8595","OBJECT_NAME":"STARLINK-1735","SITE":"AFETR","ECCENTRICITY":"0.00008490","BSTAR":"0.00007730400000","EPHEMERIS_TYPE":"0","APOAPSIS":"547.779","RA_OF_ASC_NODE":"266.1270","MEAN_ANOMALY":"299.2479","PERIOD":"95.592","REF_FRAME":"TEME","NORAD_CAT_ID":"46565","COUNTRY_CODE":"US","ELEMENT_SET_NO":"999","DECAY_DATE":null,"RCS_SIZE":"LARGE","MEAN_MOTION_DOT":"0.00000871","GP_ID":"185316452","OBJECT_ID":"2020-070AK","MEAN_MOTION_DDOT":"0.0000000000000","INCLINATION":"53.0552","OBJECT_TYPE":"PAYLOAD","REV_AT_EPOCH":"5436"},{"TLE_LINE2":"2 46566  53.0545 266.2910 0000793  85.5881 274.5198 15.06394507 54365","ARG_OF_PERICENTER":"85.5881","OBJECT_NAME":"STARLINK-1740","SITE":"AFETR","ECCENTRICITY":"0.00007930","TLE_LINE1":"1 46566U 20070AL  21266.40348875  .00000280  00000-0  37659-4 0  9996","MEAN_ELEMENT_THEORY":"SGP4","TIME_SYSTEM":"UTC","FILE":"3124856","CLASSIFICATION_TYPE":"U","EPOCH":"2021-09-23T09:41:01.428000","LAUNCH_DATE":"2020-10-06","PERIAPSIS":"546.681","CENTER_NAME":"EARTH","MEAN_MOTION":"15.06394507","SEMIMAJOR_AXIS":"6925.365","INCLINATION":"53.0545","OBJECT_TYPE":"PAYLOAD","REV_AT_EPOCH":"5436","RCS_SIZE":"LARGE","MEAN_MOTION_DOT":"0.00000280","GP_ID":"185316201","MEAN_MOTION_DDOT":"0.0000000000000","OBJECT_ID":"2020-070AL","PERIOD":"95.592","REF_FRAME":"TEME","NORAD_CAT_ID":"46566","COUNTRY_CODE":"US","ELEMENT_SET_NO":"999","DECAY_DATE":null,"BSTAR":"0.00003765900000","EPHEMERIS_TYPE":"0","APOAPSIS":"547.780","RA_OF_ASC_NODE":"266.2910","MEAN_ANOMALY":"274.5198"},{"COUNTRY_CODE":"US","DECAY_DATE":null,"ELEMENT_SET_NO":"999","REF_FRAME":"TEME","NORAD_CAT_ID":"46567","PERIOD":"95.592","MEAN_ANOMALY":"289.7107","RA_OF_ASC_NODE":"264.9692","APOAPSIS":"547.827","BSTAR":"-0.00003616300000","EPHEMERIS_TYPE":"0","REV_AT_EPOCH":"5441","OBJECT_TYPE":"PAYLOAD","INCLINATION":"53.0542","OBJECT_ID":"2020-070AM","MEAN_MOTION_DDOT":"0.0000000000000","GP_ID":"185350181","RCS_SIZE":"LARGE","MEAN_MOTION_DOT":"-0.00000820","CLASSIFICATION_TYPE":"U","EPOCH":"2021-09-23T16:45:38.538144","FILE":"3125337","SEMIMAJOR_AXIS":"6925.360","MEAN_MOTION":"15.06396134","CENTER_NAME":"EARTH","PERIAPSIS":"546.624","LAUNCH_DATE":"2020-10-06","ECCENTRICITY":"0.00008680","SITE":"AFETR","OBJECT_NAME":"STARLINK-1741","ARG_OF_PERICENTER":"70.3976","TLE_LINE2":"2 46567  53.0542 264.9692 0000868  70.3976 289.7107 15.06396134 54417","TIME_SYSTEM":"UTC","MEAN_ELEMENT_THEORY":"SGP4","TLE_LINE1":"1 46567U 20070AM  21266.69836271 -.00000820  00000-0 -36163-4 0  9991"},{"MEAN_MOTION":"15.29750729","SEMIMAJOR_AXIS":"6854.694","PERIAPSIS":"471.385","LAUNCH_DATE":"2020-10-06","CENTER_NAME":"EARTH","FILE":"3125337","EPOCH":"2021-09-23T18:18:17.457120","CLASSIFICATION_TYPE":"U","TIME_SYSTEM":"UTC","MEAN_ELEMENT_THEORY":"SGP4","TLE_LINE1":"1 46568U 20070AN  21266.76270205  .00137164  00000-0  46189-2 0  9996","SITE":"AFETR","ECCENTRICITY":"0.00075480","TLE_LINE2":"2 46568  53.0540 277.0527 0007548 280.1245  79.8902 15.29750729 54241","OBJECT_NAME":"STARLINK-1743","ARG_OF_PERICENTER":"280.1245","RA_OF_ASC_NODE":"277.0527","MEAN_ANOMALY":"79.8902","EPHEMERIS_TYPE":"0","BSTAR":"0.00461890000000","APOAPSIS":"481.733","NORAD_CAT_ID":"46568","REF_FRAME":"TEME","ELEMENT_SET_NO":"999","DECAY_DATE":null,"COUNTRY_CODE":"US","PERIOD":"94.133","GP_ID":"185349433","MEAN_MOTION_DDOT":"0.0000000000000","OBJECT_ID":"2020-070AN","MEAN_MOTION_DOT":"0.00137164","RCS_SIZE":"LARGE","REV_AT_EPOCH":"5424","INCLINATION":"53.0540","OBJECT_TYPE":"PAYLOAD"},{"FILE":"3125337","CLASSIFICATION_TYPE":"U","EPOCH":"2021-09-23T17:06:52.910496","PERIAPSIS":"546.576","LAUNCH_DATE":"2020-10-06","CENTER_NAME":"EARTH","MEAN_MOTION":"15.06393881","SEMIMAJOR_AXIS":"6925.367","TLE_LINE2":"2 46569  53.0535 264.8905 0000948  62.9908 297.1178 15.06393881 54415","OBJECT_NAME":"STARLINK-1747","ARG_OF_PERICENTER":"62.9908","SITE":"AFETR","ECCENTRICITY":"0.00009480","TLE_LINE1":"1 46569U 20070AP  21266.71311239  .00001467  00000-0  11738-3 0  9994","TIME_SYSTEM":"UTC","MEAN_ELEMENT_THEORY":"SGP4","PERIOD":"95.593","REF_FRAME":"TEME","NORAD_CAT_ID":"46569","COUNTRY_CODE":"US","ELEMENT_SET_NO":"999","DECAY_DATE":null,"BSTAR":"0.00011738000000","EPHEMERIS_TYPE":"0","APOAPSIS":"547.889","RA_OF_ASC_NODE":"264.8905","MEAN_ANOMALY":"297.1178","INCLINATION":"53.0535","OBJECT_TYPE":"PAYLOAD","REV_AT_EPOCH":"5441","RCS_SIZE":"LARGE","MEAN_MOTION_DOT":"0.00001467","GP_ID":"185349181","OBJECT_ID":"2020-070AP","MEAN_MOTION_DDOT":"0.0000000000000"},{"SITE":"AFETR","ECCENTRICITY":"0.00011940","TLE_LINE2":"2 46570  53.0534 264.9995 0001194  74.6152 285.4969 15.06397515 54406","OBJECT_NAME":"STARLINK-1748","ARG_OF_PERICENTER":"74.6152","TIME_SYSTEM":"UTC","MEAN_ELEMENT_THEORY":"SGP4","TLE_LINE1":"1 46570U 20070AQ  21266.68730031 -.00000469  00000-0 -12630-4 0  9993","FILE":"3125337","EPOCH":"2021-09-23T16:29:42.746784","CLASSIFICATION_TYPE":"U","MEAN_MOTION":"15.06397515","SEMIMAJOR_AXIS":"6925.356","PERIAPSIS":"546.394","LAUNCH_DATE":"2020-10-06","CENTER_NAME":"EARTH","REV_AT_EPOCH":"5440","INCLINATION":"53.0534","OBJECT_TYPE":"PAYLOAD","GP_ID":"185350425","OBJECT_ID":"2020-070AQ","MEAN_MOTION_DDOT":"0.0000000000000","MEAN_MOTION_DOT":"-0.00000469","RCS_SIZE":"LARGE","NORAD_CAT_ID":"46570","REF_FRAME":"TEME","DECAY_DATE":null,"ELEMENT_SET_NO":"999","COUNTRY_CODE":"US","PERIOD":"95.592","RA_OF_ASC_NODE":"264.9995","MEAN_ANOMALY":"285.4969","EPHEMERIS_TYPE":"0","BSTAR":"-0.00001263000000","APOAPSIS":"548.048"},{"ARG_OF_PERICENTER":"66.0799","OBJECT_NAME":"STARLINK-1753","TLE_LINE2":"2 46571  53.0533 264.8838 0000941  66.0799 294.0289 15.06409841 54410","ECCENTRICITY":"0.00009410","SITE":"AFETR","TLE_LINE1":"1 46571U 20070AR  21266.71678155  .00001581  00000-0  12498-3 0  9991","TIME_SYSTEM":"UTC","MEAN_ELEMENT_THEORY":"SGP4","CLASSIFICATION_TYPE":"U","EPOCH":"2021-09-23T17:12:09.925920","FILE":"3125337","CENTER_NAME":"EARTH","PERIAPSIS":"546.532","LAUNCH_DATE":"2020-10-06","SEMIMAJOR_AXIS":"6925.318","MEAN_MOTION":"15.06409841","OBJECT_TYPE":"PAYLOAD","INCLINATION":"53.0533","REV_AT_EPOCH":"5441","RCS_SIZE":"LARGE","MEAN_MOTION_DOT":"0.00001581","OBJECT_ID":"2020-070AR","MEAN_MOTION_DDOT":"0.0000000000000","GP_ID":"185350681","PERIOD":"95.592","COUNTRY_CODE":"US","DECAY_DATE":null,"ELEMENT_SET_NO":"999","REF_FRAME":"TEME","NORAD_CAT_ID":"46571","APOAPSIS":"547.835","BSTAR":"0.00012498000000","EPHEMERIS_TYPE":"0","MEAN_ANOMALY":"294.0289","RA_OF_ASC_NODE":"264.8838"},{"MEAN_ELEMENT_THEORY":"SGP4","TIME_SYSTEM":"UTC","TLE_LINE1":"1 46572U 20070AS  21266.75181451  .00001736  00000-0  13540-3 0  9995","SITE":"AFETR","ECCENTRICITY":"0.00009580","TLE_LINE2":"2 46572  53.0545 284.7235 0000958  89.9690 270.1408 15.06398418 54132","OBJECT_NAME":"STARLINK-1531","ARG_OF_PERICENTER":"89.9690","MEAN_MOTION":"15.06398418","SEMIMAJOR_AXIS":"6925.353","PERIAPSIS":"546.555","LAUNCH_DATE":"2020-10-06","CENTER_NAME":"EARTH","FILE":"3125337","EPOCH":"2021-09-23T18:02:36.773664","CLASSIFICATION_TYPE":"U","GP_ID":"185348934","OBJECT_ID":"2020-070AS","MEAN_MOTION_DDOT":"0.0000000000000","MEAN_MOTION_DOT":"0.00001736","RCS_SIZE":"LARGE","REV_AT_EPOCH":"5413","INCLINATION":"53.0545","OBJECT_TYPE":"PAYLOAD","RA_OF_ASC_NODE":"284.7235","MEAN_ANOMALY":"270.1408","EPHEMERIS_TYPE":"0","BSTAR":"0.00013540000000","APOAPSIS":"547.882","NORAD_CAT_ID":"46572","REF_FRAME":"TEME","ELEMENT_SET_NO":"999","DECAY_DATE":null,"COUNTRY_CODE":"US","PERIOD":"95.592"},{"SEMIMAJOR_AXIS":"6925.337","MEAN_MOTION":"15.06403651","CENTER_NAME":"EARTH","LAUNCH_DATE":"2020-10-06","PERIAPSIS":"546.476","EPOCH":"2021-09-23T17:30:04.811040","CLASSIFICATION_TYPE":"U","FILE":"3125337","TIME_SYSTEM":"UTC","MEAN_ELEMENT_THEORY":"SGP4","TLE_LINE1":"1 46573U 20070AT  21266.72922235  .00001249  00000-0  10270-3 0  9992","ECCENTRICITY":"0.00010490","SITE":"AFETR","ARG_OF_PERICENTER":"72.6262","OBJECT_NAME":"STARLINK-1650","TLE_LINE2":"2 46573  53.0535 269.8169 0001049  72.6262 287.4841 15.06403651 54349","MEAN_ANOMALY":"287.4841","RA_OF_ASC_NODE":"269.8169","APOAPSIS":"547.929","EPHEMERIS_TYPE":"0","BSTAR":"0.00010270000000","ELEMENT_SET_NO":"999","DECAY_DATE":null,"COUNTRY_CODE":"US","NORAD_CAT_ID":"46573","REF_FRAME":"TEME","PERIOD":"95.592","MEAN_MOTION_DDOT":"0.0000000000000","OBJECT_ID":"2020-070AT","GP_ID":"185349681","MEAN_MOTION_DOT":"0.00001249","RCS_SIZE":"LARGE","REV_AT_EPOCH":"5434","OBJECT_TYPE":"PAYLOAD","INCLINATION":"53.0535"},{"TIME_SYSTEM":"UTC","MEAN_ELEMENT_THEORY":"SGP4","TLE_LINE1":"1 46574U 20070AU  21266.71448718 -.00000725  00000-0 -29820-4 0  9993","ECCENTRICITY":"0.00012480","SITE":"AFETR","ARG_OF_PERICENTER":"86.3265","OBJECT_NAME":"STARLINK-1660","TLE_LINE2":"2 46574  53.0542 269.8951 0001248  86.3265 273.7867 15.06396908 54345","SEMIMAJOR_AXIS":"6925.358","MEAN_MOTION":"15.06396908","CENTER_NAME":"EARTH","LAUNCH_DATE":"2020-10-06","PERIAPSIS":"546.359","CLASSIFICATION_TYPE":"U","EPOCH":"2021-09-23T17:08:51.692352","FILE":"3125337","MEAN_MOTION_DDOT":"0.0000000000000","OBJECT_ID":"2020-070AU","GP_ID":"185349926","RCS_SIZE":"LARGE","MEAN_MOTION_DOT":"-0.00000725","REV_AT_EPOCH":"5434","OBJECT_TYPE":"PAYLOAD","INCLINATION":"53.0542","MEAN_ANOMALY":"273.7867","RA_OF_ASC_NODE":"269.8951","APOAPSIS":"548.087","BSTAR":"-0.00002982000000","EPHEMERIS_TYPE":"0","COUNTRY_CODE":"US","ELEMENT_SET_NO":"999","DECAY_DATE":null,"REF_FRAME":"TEME","NORAD_CAT_ID":"46574","PERIOD":"95.592"}];
